{
  "type": "FeatureCollection",
  "features": [
    {
      "id": "Micro-Transit Zone City",
      "type": "Feature",
      "geometry": {
        "type": "Polygon",
        "coordinates": [
          [
            [-81.07382041580939, 32.07823962439194],
            [-81.0755581694531, 32.07395612319834],
            [-81.03416720251684, 32.06471804243944],
            [-81.03274539216605, 32.06659235294356],
            [-81.02784786714003, 32.06833279568245],
            [-81.02310813898755, 32.06605695947167],
            [-81.03005960530356, 32.06337924236213],
            [-81.03148181659419, 32.05949644359248],
            [-81.03574684544785, 32.06217431780192],
            [-81.03859052525931, 32.05976434545491],
            [-81.04380429100337, 32.0584253381826],
            [-81.0510770253051, 32.06324235991681],
            [-81.05423486097183, 32.05507689986007],
            [-81.05028222076152, 32.05400670133335],
            [-81.05312648852592, 32.04610664670069],
            [-81.05091356251557, 32.04543709950919],
            [-81.05043937256937, 32.04222321203935],
            [-81.0548641840401, 32.03606342675306],
            [-81.0569181518329, 32.03325127432846],
            [-81.05755170981904, 32.02521707885383],
            [-81.05375791937382, 32.023206157366],
            [-81.05960278992107, 32.01999131710093],
            [-81.0624474144681, 32.02079618138465],
            [-81.06623944024084, 32.0154398389794],
            [-81.06481810166086, 32.01182403304787],
            [-81.06576476440895, 32.00833918451043],
            [-81.06355315068642, 32.00097133010198],
            [-81.07271621905097, 31.99896493892167],
            [-81.07919259881223, 32.00043838871413],
            [-81.08345750421441, 31.99025263791897],
            [-81.09025050989976, 31.99011731070404],
            [-81.12215775209793, 31.99802743698264],
            [-81.12026190012419, 32.00378794964305],
            [-81.11315505539895, 32.02146666586586],
            [-81.11789414770108, 32.02240408943514],
            [-81.11615316302689, 32.02695962202202],
            [-81.12057312223301, 32.02816610495921],
            [-81.11946817728253, 32.03124544471621],
            [-81.13416324594888, 32.03512688435596],
            [-81.14838267450932, 32.03311765637301],
            [-81.16401319098384, 32.03901056612801],
            [-81.1660700545701, 32.04824887021938],
            [-81.16133701406937, 32.07100852256886],
            [-81.15943973015297, 32.08680209080694],
            [-81.14016845823375, 32.0976428861558],
            [-81.14285388728258, 32.0988472396531],
            [-81.14064178824924, 32.10634033004926],
            [-81.12769053326683, 32.11316750159598],
            [-81.1096815123032, 32.09684212700611],
            [-81.09340833793185, 32.08211342011278],
            [-81.08693321229265, 32.08083287009649],
            [-81.08613439829868, 32.08306954927956],
            [-81.09101086798054, 32.0840881724],
            [-81.0978176949954, 32.08962887562075],
            [-81.10035359344671, 32.09279503515012],
            [-81.09421405976597, 32.09890027167376],
            [-81.09181166939089, 32.09810861401482],
            [-81.08313648799935, 32.09686458299539],
            [-81.08166833082605, 32.09765623875278],
            [-81.07873215008667, 32.09675156997547],
            [-81.07779797857057, 32.09505536088967],
            [-81.07419427034249, 32.09369896052443],
            [-81.06898948519742, 32.08827098759613],
            [-81.05991337432273, 32.08476618105311],
            [-81.0611158991907, 32.08239033348943],
            [-81.07032689969445, 32.08193531402678],
            [-81.07259397639457, 32.0802411533883],
            [-81.08208045569874, 32.08222274002397],
            [-81.08265735449314, 32.07998725719569],
            [-81.07382041580939, 32.07823962439194]
          ]
        ]
      }
    }
  ]
}